[{"OBJECT_NAME":"FLOCK 3R-7","OBJECT_ID":"2018-096Z","EPOCH":"2022-10-28T12:09:13.559616","MEAN_MOTION":15.72655826,"ECCENTRICITY":0.0013209,"INCLINATION":97.3486,"RA_OF_ASC_NODE":30.1978,"ARG_OF_PERICENTER":274.8748,"MEAN_ANOMALY":209.1642,"EPHEMERIS_TYPE":0,"CLASSIFICATION_TYPE":"U","NORAD_CAT_ID":43742,"ELEMENT_SET_NO":999,"REV_AT_EPOCH":21894,"BSTAR":0.0028876,"MEAN_MOTION_DOT":0.00407006,"MEAN_MOTION_DDOT":0},{"OBJECT_NAME":"REAKTOR HELLO WORLD","OBJECT_ID":"2018-096AA","EPOCH":"2022-10-29T04:34:39.410688","MEAN_MOTION":15.37634075,"ECCENTRICITY":0.001266,"INCLINATION":97.3433,"RA_OF_ASC_NODE":21.7148,"ARG_OF_PERICENTER":300.683,"MEAN_ANOMALY":59.3167,"EPHEMERIS_TYPE":0,"CLASSIFICATION_TYPE":"U","NORAD_CAT_ID":43743,"ELEMENT_SET_NO":999,"REV_AT_EPOCH":21848,"BSTAR":0.0006402,"MEAN_MOTION_DOT":0.00023673,"MEAN_MOTION_DDOT":0},{"OBJECT_NAME":"HIBER-1","OBJECT_ID":"2018-096AB","EPOCH":"2022-10-28T19:20:31.678080","MEAN_MOTION":15.5145367,"ECCENTRICITY":0.0010384,"INCLINATION":97.3475,"RA_OF_ASC_NODE":26.3785,"ARG_OF_PERICENTER":283.9326,"MEAN_ANOMALY":76.0771,"EPHEMERIS_TYPE":0,"CLASSIFICATION_TYPE":"U","NORAD_CAT_ID":43744,"ELEMENT_SET_NO":999,"REV_AT_EPOCH":21872,"BSTAR":0.001136,"MEAN_MOTION_DOT":0.00067537,"MEAN_MOTION_DDOT":0},{"OBJECT_NAME":"LEMUR-2-DULY","OBJECT_ID":"2018-096AC","EPOCH":"2022-10-28T18:51:22.029696","MEAN_MOTION":15.53418178,"ECCENTRICITY":0.0012535,"INCLINATION":97.3572,"RA_OF_ASC_NODE":29.121,"ARG_OF_PERICENTER":277.8156,"MEAN_ANOMALY":82.1674,"EPHEMERIS_TYPE":0,"CLASSIFICATION_TYPE":"U","NORAD_CAT_ID":43745,"ELEMENT_SET_NO":999,"REV_AT_EPOCH":21888,"BSTAR":0.0011869,"MEAN_MOTION_DOT":0.00075872,"MEAN_MOTION_DDOT":0},{"OBJECT_NAME":"LEMUR-2-VLADIMIR","OBJECT_ID":"2018-096AD","EPOCH":"2022-10-29T04:53:30.862752","MEAN_MOTION":15.6143028,"ECCENTRICITY":0.001386,"INCLINATION":97.3566,"RA_OF_ASC_NODE":30.9647,"ARG_OF_PERICENTER":274.2852,"MEAN_ANOMALY":85.6822,"EPHEMERIS_TYPE":0,"CLASSIFICATION_TYPE":"U","NORAD_CAT_ID":43746,"ELEMENT_SET_NO":999,"REV_AT_EPOCH":21906,"BSTAR":0.0016785,"MEAN_MOTION_DOT":0.00146024,"MEAN_MOTION_DDOT":0},{"OBJECT_NAME":"COSMOS 2530","OBJECT_ID":"2018-097A","EPOCH":"2022-10-29T03:16:51.081312","MEAN_MOTION":12.42874648,"ECCENTRICITY":0.0020681,"INCLINATION":82.515,"RA_OF_ASC_NODE":325.9885,"ARG_OF_PERICENTER":54.3879,"MEAN_ANOMALY":305.9129,"EPHEMERIS_TYPE":0,"CLASSIFICATION_TYPE":"U","NORAD_CAT_ID":43751,"ELEMENT_SET_NO":999,"REV_AT_EPOCH":17752,"BSTAR":0.0001,"MEAN_MOTION_DOT":2.4e-7,"MEAN_MOTION_DDOT":0},{"OBJECT_NAME":"COSMOS 2531","OBJECT_ID":"2018-097B","EPOCH":"2022-10-29T03:55:07.449024","MEAN_MOTION":12.42896125,"ECCENTRICITY":0.0018009,"INCLINATION":82.5196,"RA_OF_ASC_NODE":326.5399,"ARG_OF_PERICENTER":71.0699,"MEAN_ANOMALY":289.2336,"EPHEMERIS_TYPE":0,"CLASSIFICATION_TYPE":"U","NORAD_CAT_ID":43752,"ELEMENT_SET_NO":999,"REV_AT_EPOCH":17753,"BSTAR":0.0001,"MEAN_MOTION_DOT":2.4e-7,"MEAN_MOTION_DDOT":0},{"OBJECT_NAME":"COSMOS 2532","OBJECT_ID":"2018-097C","EPOCH":"2022-10-29T02:36:48.699936","MEAN_MOTION":12.42897381,"ECCENTRICITY":0.00195,"INCLINATION":82.5124,"RA_OF_ASC_NODE":325.9627,"ARG_OF_PERICENTER":73.9155,"MEAN_ANOMALY":286.4078,"EPHEMERIS_TYPE":0,"CLASSIFICATION_TYPE":"U","NORAD_CAT_ID":43753,"ELEMENT_SET_NO":999,"REV_AT_EPOCH":17752,"BSTAR":0.0001,"MEAN_MOTION_DOT":2.4e-7,"MEAN_MOTION_DDOT":0},{"OBJECT_NAME":"MINXSS-2","OBJECT_ID":"2018-099A","EPOCH":"2022-10-29T03:16:50.273472","MEAN_MOTION":14.98174094,"ECCENTRICITY":0.0015312,"INCLINATION":97.6102,"RA_OF_ASC_NODE":6.7911,"ARG_OF_PERICENTER":168.6939,"MEAN_ANOMALY":191.463,"EPHEMERIS_TYPE":0,"CLASSIFICATION_TYPE":"U","NORAD_CAT_ID":43758,"ELEMENT_SET_NO":999,"REV_AT_EPOCH":21311,"BSTAR":0.00049224,"MEAN_MOTION_DOT":5.796e-5,"MEAN_MOTION_DDOT":0},{"OBJECT_NAME":"SIRION PATHFINDER-2","OBJECT_ID":"2018-099B","EPOCH":"2022-10-29T07:07:20.826048","MEAN_MOTION":14.96830247,"ECCENTRICITY":0.0013993,"INCLINATION":97.6053,"RA_OF_ASC_NODE":5.4984,"ARG_OF_PERICENTER":167.6795,"MEAN_ANOMALY":192.4772,"EPHEMERIS_TYPE":0,"CLASSIFICATION_TYPE":"U","NORAD_CAT_ID":43759,"ELEMENT_SET_NO":999,"REV_AT_EPOCH":21306,"BSTAR":0.00021242,"MEAN_MOTION_DOT":2.381e-5,"MEAN_MOTION_DDOT":0},{"OBJECT_NAME":"ELYSIUM STAR 2 & LFF","OBJECT_ID":"2018-099C","EPOCH":"2022-10-29T06:50:11.453856","MEAN_MOTION":15.00088505,"ECCENTRICITY":0.0011207,"INCLINATION":97.621,"RA_OF_ASC_NODE":7.9643,"ARG_OF_PERICENTER":163.2538,"MEAN_ANOMALY":196.9058,"EPHEMERIS_TYPE":0,"CLASSIFICATION_TYPE":"U","NORAD_CAT_ID":43760,"ELEMENT_SET_NO":999,"REV_AT_EPOCH":21317,"BSTAR":0.00073007,"MEAN_MOTION_DOT":9.059e-5,"MEAN_MOTION_DDOT":0},{"OBJECT_NAME":"2018-099D","OBJECT_ID":"2018-099D","EPOCH":"2022-10-28T21:46:28.215264","MEAN_MOTION":14.96213216,"ECCENTRICITY":0.001417,"INCLINATION":97.6078,"RA_OF_ASC_NODE":4.9941,"ARG_OF_PERICENTER":176.4673,"MEAN_ANOMALY":183.6651,"EPHEMERIS_TYPE":0,"CLASSIFICATION_TYPE":"U","NORAD_CAT_ID":43761,"ELEMENT_SET_NO":999,"REV_AT_EPOCH":21297,"BSTAR":7.6539e-5,"MEAN_MOTION_DOT":8.08e-6,"MEAN_MOTION_DDOT":0},{"OBJECT_NAME":"STPSAT-5","OBJECT_ID":"2018-099E","EPOCH":"2022-10-29T03:33:24.193152","MEAN_MOTION":14.97541949,"ECCENTRICITY":0.0013998,"INCLINATION":97.612,"RA_OF_ASC_NODE":7.3049,"ARG_OF_PERICENTER":171.2214,"MEAN_ANOMALY":188.9256,"EPHEMERIS_TYPE":0,"CLASSIFICATION_TYPE":"U","NORAD_CAT_ID":43762,"ELEMENT_SET_NO":999,"REV_AT_EPOCH":21313,"BSTAR":0.00024898,"MEAN_MOTION_DOT":2.853e-5,"MEAN_MOTION_DDOT":0},{"OBJECT_NAME":"POLAR SCOUT KODIAK","OBJECT_ID":"2018-099G","EPOCH":"2022-10-28T18:16:42.137184","MEAN_MOTION":14.99254887,"ECCENTRICITY":0.0014437,"INCLINATION":97.6155,"RA_OF_ASC_NODE":8.4957,"ARG_OF_PERICENTER":171.0814,"MEAN_ANOMALY":189.0668,"EPHEMERIS_TYPE":0,"CLASSIFICATION_TYPE":"U","NORAD_CAT_ID":43764,"ELEMENT_SET_NO":999,"REV_AT_EPOCH":21317,"BSTAR":0.00032804,"MEAN_MOTION_DOT":3.951e-5,"MEAN_MOTION_DDOT":0},{"OBJECT_NAME":"HAWK-A","OBJECT_ID":"2018-099H","EPOCH":"2022-10-28T19:14:38.077440","MEAN_MOTION":14.97533707,"ECCENTRICITY":0.0014705,"INCLINATION":97.6053,"RA_OF_ASC_NODE":6.3714,"ARG_OF_PERICENTER":176.6253,"MEAN_ANOMALY":183.5071,"EPHEMERIS_TYPE":0,"CLASSIFICATION_TYPE":"U","NORAD_CAT_ID":43765,"ELEMENT_SET_NO":999,"REV_AT_EPOCH":21309,"BSTAR":0.00025703,"MEAN_MOTION_DOT":2.947e-5,"MEAN_MOTION_DDOT":0},{"OBJECT_NAME":"SPAWAR-CAL-O","OBJECT_ID":"2018-099J","EPOCH":"2022-10-29T06:19:15.815136","MEAN_MOTION":14.97111499,"ECCENTRICITY":0.0011292,"INCLINATION":97.6042,"RA_OF_ASC_NODE":4.4288,"ARG_OF_PERICENTER":168.9961,"MEAN_ANOMALY":191.1511,"EPHEMERIS_TYPE":0,"CLASSIFICATION_TYPE":"U","NORAD_CAT_ID":43766,"ELEMENT_SET_NO":999,"REV_AT_EPOCH":21300,"BSTAR":0.00046623,"MEAN_MOTION_DOT":5.331e-5,"MEAN_MOTION_DDOT":0},{"OBJECT_NAME":"CORVUS BC4","OBJECT_ID":"2018-099K","EPOCH":"2022-10-29T04:05:48.500736","MEAN_MOTION":14.96240046,"ECCENTRICITY":0.0011635,"INCLINATION":97.6003,"RA_OF_ASC_NODE":3.6862,"ARG_OF_PERICENTER":173.0971,"MEAN_ANOMALY":187.0413,"EPHEMERIS_TYPE":0,"CLASSIFICATION_TYPE":"U","NORAD_CAT_ID":43767,"ELEMENT_SET_NO":999,"REV_AT_EPOCH":21296,"BSTAR":0.00024515,"MEAN_MOTION_DOT":2.713e-5,"MEAN_MOTION_DDOT":0}]
