FLOCK 3R-7              
1 43742U 18096Z   22301.50640694  .00407006  00000+0  28876-2 0  9995
2 43742  97.3486  30.1978 0013209 274.8748 209.1642 15.72655826218947
REAKTOR HELLO WORLD     
1 43743U 18096AA  22302.19073392  .00023673  00000+0  64020-3 0  9993
2 43743  97.3433  21.7148 0012660 300.6830  59.3167 15.37634075218485
HIBER-1                 
1 43744U 18096AB  22301.80592220  .00067537  00000+0  11360-2 0  9992
2 43744  97.3475  26.3785 0010384 283.9326  76.0771 15.51453670218724
LEMUR-2-DULY            
1 43745U 18096AC  22301.78567164  .00075872  00000+0  11869-2 0  9994
2 43745  97.3572  29.1210 0012535 277.8156  82.1674 15.53418178218883
LEMUR-2-VLADIMIR        
1 43746U 18096AD  22302.20382943  .00146024  00000+0  16785-2 0  9993
2 43746  97.3566  30.9647 0013860 274.2852  85.6822 15.61430280219068
COSMOS 2530             
1 43751U 18097A   22302.13670233  .00000024  00000+0  10000-3 0  9998
2 43751  82.5150 325.9885 0020681  54.3879 305.9129 12.42874648177523
COSMOS 2531             
1 43752U 18097B   22302.16328066  .00000024  00000+0  10000-3 0  9996
2 43752  82.5196 326.5399 0018009  71.0699 289.2336 12.42896125177537
COSMOS 2532             
1 43753U 18097C   22302.10889699  .00000024  00000+0  10000-3 0  9995
2 43753  82.5124 325.9627 0019500  73.9155 286.4078 12.42897381177527
MINXSS-2                
1 43758U 18099A   22302.13669298  .00005796  00000+0  49224-3 0  9997
2 43758  97.6102   6.7911 0015312 168.6939 191.4630 14.98174094213111
SIRION PATHFINDER-2     
1 43759U 18099B   22302.29676882  .00002381  00000+0  21242-3 0  9999
2 43759  97.6053   5.4984 0013993 167.6795 192.4772 14.96830247213064
ELYSIUM STAR 2 & LFF    
1 43760U 18099C   22302.28485479  .00009059  00000+0  73007-3 0  9995
2 43760  97.6210   7.9643 0011207 163.2538 196.9058 15.00088505213179
2018-099D               
1 43761U 18099D   22301.90727101  .00000808  00000+0  76539-4 0  9992
2 43761  97.6078   4.9941 0014170 176.4673 183.6651 14.96213216212970
STPSAT-5                
1 43762U 18099E   22302.14819668  .00002853  00000+0  24898-3 0  9992
2 43762  97.6120   7.3049 0013998 171.2214 188.9256 14.97541949213132
POLAR SCOUT KODIAK      
1 43764U 18099G   22301.76159881  .00003951  00000+0  32804-3 0  9991
2 43764  97.6155   8.4957 0014437 171.0814 189.0668 14.99254887213172
HAWK-A                  
1 43765U 18099H   22301.80182960  .00002947  00000+0  25703-3 0  9995
2 43765  97.6053   6.3714 0014705 176.6253 183.5071 14.97533707213091
SPAWAR-CAL-O            
1 43766U 18099J   22302.26337749  .00005331  00000+0  46623-3 0  9998
2 43766  97.6042   4.4288 0011292 168.9961 191.1511 14.97111499213008
CORVUS BC4              
1 43767U 18099K   22302.17070024  .00002713  00000+0  24515-3 0  9996
2 43767  97.6003   3.6862 0011635 173.0971 187.0413 14.96240046212963
